0 COSMOS 2251 DEB
1 36447U 93036BAW 13281.77639182  .00005311  00000-0  70696-3 0  2290
2 36447 073.9434 315.8727 0128516 211.7400 270.6542 14.74297218213789
0 COSMOS 2251 DEB
1 36447U 93036BAW 13283.46273270  .00007970  00000-0  10574-2 0  2303
2 36447 073.9436 312.5606 0128366 208.0546 220.9376 14.74326439214034
0 COSMOS 2251 DEB
1 36447U 93036BAW 13285.42971243  .00005734  00000-0  76232-3 0  2317
2 36447 073.9434 308.6975 0128244 203.7715 220.8653 14.74346597214328
0 COSMOS 2251 DEB
1 36447U 93036BAW 13287.39707354  .00006097  00000-0  81008-3 0  2326
2 36447 073.9426 304.8332 0128088 199.4678 222.9763 14.74365063214604
0 COSMOS 2251 DEB
1 36447U 93036BAW 13289.71561519  .00008522  00000-0  11293-2 0  2339
2 36447 073.9420 300.2796 0127884 194.4124 289.2500 14.74398054214955
0 COSMOS 2251 DEB
1 36447U 93036BAW 13291.68255964  .00007043  00000-0  93419-3 0  2341
2 36447 073.9422 296.4165 0127703 190.1114 289.5295 14.74420609215244
0 COSMOS 2251 DEB
1 36447U 93036BAW 13293.36892627  .00006787  00000-0  90028-3 0  2359
2 36447 073.9426 293.1040 0127624 186.3687 240.7225 14.74437375215495
0 COSMOS 2251 DEB
1 36447U 93036BAW 13295.68574339  .00008139  00000-0  10780-2 0  2363
2 36447 073.9429 288.5520 0127409 181.2694 298.4615 14.74463777215838
